ONEWEB-0423             
1 51627U 22012F   26187.73623874  .00000039  00000+0  66101-4 0  9991
2 51627  87.9137   1.9745 0001828  87.9720 272.1621 13.17648695216275
ONEWEB-0425             
1 51628U 22012G   26187.57954450 -.00000078  00000+0 -26030-3 0  9992
2 51628  87.8815  32.4029 0001949  74.8213 285.3130 13.10370642211866
ONEWEB-0428             
1 51629U 22012H   26187.63554435  .00000679  00000+0  19079-2 0  9998
2 51629  87.8817  32.3987 0001855  85.8758 274.2581 13.10374714211831
ONEWEB-0431             
1 51630U 22012J   26187.60480969 -.00000538  00000+0 -15767-2 0  9993
2 51630  87.8822  32.3976 0002207 100.2564 259.8812 13.10373917211881
ONEWEB-0434             
1 51631U 22012K   26187.58306898 -.00000245  00000+0 -73683-3 0  9996
2 51631  87.8819  32.4278 0001813  66.5126 293.6192 13.10365459211861
ONEWEB-0435             
1 51632U 22012L   26187.58969041 -.00002072  00000+0 -59750-2 0  9990
2 51632  87.8817  32.4125 0001985  99.3496 260.7856 13.10359173211852
ONEWEB-0436             
1 51633U 22012M   26187.49999422  .00000036  00000+0  60308-4 0  9996
2 51633  87.9146   2.0042 0001828  97.8244 262.3095 13.17650744216224
ONEWEB-0438             
1 51634U 22012N   26187.57444095  .00000198  00000+0  53112-3 0  9990
2 51634  87.8815  32.4178 0001915  80.4267 279.7077 13.10371730211881
ONEWEB-0439             
1 51635U 22012P   26187.57783609  .00000050  00000+0  10554-3 0  9998
2 51635  87.8813  32.4044 0001809  84.9234 275.2100 13.10370446211866
ONEWEB-0442             
1 51636U 22012Q   26187.72023109  .00000081  00000+0  17479-3 0  9995
2 51636  87.9137   1.9916 0002011  73.9381 286.1972 13.17650907216248
ONEWEB-0443             
1 51637U 22012R   26187.73961272  .00000008  00000+0 -11334-4 0  9994
2 51637  87.9137   1.9890 0001525  88.3147 271.8159 13.17649669216295
ONEWEB-0444             
1 51638U 22012S   26187.56766189  .00000527  00000+0  14726-2 0  9997
2 51638  87.8814  32.4050 0001651  85.9145 274.2170 13.10372749211879
ONEWEB-0445             
1 51639U 22012T   26187.58797994 -.00000467  00000+0 -13728-2 0  9994
2 51639  87.8823  32.3906 0002113  86.7981 273.3388 13.10370055211880
ONEWEB-0446             
1 51640U 22012U   26187.64229891  .00000631  00000+0  17725-2 0  9991
2 51640  87.8817  32.4073 0002204  85.5968 274.5411 13.10369967211873
ONEWEB-0448             
1 51641U 22012V   26187.57105520  .00000418  00000+0  11619-2 0  9995
2 51641  87.8812  32.4174 0001815  86.1279 274.0056 13.10372846211836
ONEWEB-0449             
1 51642U 22012W   26187.57612584  .00000109  00000+0  27608-3 0  9992
2 51642  87.8818  32.4029 0002110  71.1207 289.0149 13.10370027211845
ONEWEB-0451             
1 51643U 22012X   26187.72443600  .00000107  00000+0  24331-3 0  9999
2 51643  87.9148   1.9576 0001815  84.5240 275.6098 13.17651102216232
ONEWEB-0452             
1 51644U 22012Y   26187.72273613  .00000092  00000+0  20375-3 0  9992
2 51644  87.9140   1.9929 0001613  85.7691 274.3625 13.17651109216246
ONEWEB-0456             
1 51646U 22012AA  26187.58458207 -.00000354  00000+0 -10513-2 0  9997
2 51646  87.8826  32.3899 0001734  90.1957 269.9369 13.10368890211886
ONEWEB-0457             
1 51647U 22012AB  26187.63879822  .00000652  00000+0  18323-2 0  9990
2 51647  87.8818  32.3954 0002191  82.1126 278.0250 13.10373897211891
ONEWEB-0458             
1 51648U 22012AC  26187.58375396 -.00000303  00000+0 -90575-3 0  9997
2 51648  87.8818  32.3947 0001669  82.2338 277.8979 13.10369727211846
ONEWEB-0461             
1 51649U 22012AD  26187.74468700  .00000030  00000+0  44093-4 0  9998
2 51649  87.9147   1.9675 0001983  89.6053 270.5306 13.17649556216462
ONEWEB-0463             
1 51650U 22012AE  26187.72612661  .00000079  00000+0  16983-3 0  9994
2 51650  87.9138   1.9919 0002046  90.1548 269.9818 13.17650283216247
ONEWEB-0464             
1 51651U 22012AF  26187.58121316 -.00002445  00000+0 -70420-2 0  9997
2 51651  87.8814  32.4164 0001615  88.2276 271.9037 13.10381092211867
ONEWEB-0468             
1 51652U 22012AG  26187.58627838 -.00000369  00000+0 -10941-2 0  9993
2 51652  87.8814  32.4087 0001605  90.7264 269.4048 13.10369031211847
ONEWEB-0473             
1 51653U 22012AH  26187.57274942  .00000638  00000+0  17919-2 0  9996
2 51653  87.8815  32.4137 0001781  89.0216 271.1115 13.10367293211841
ONEWEB-0474             
1 51654U 22012AJ  26187.64062347  .00000529  00000+0  14780-2 0  9991
2 51654  87.8826  32.3860 0001523  88.6831 271.4471 13.10372056211849
ONEWEB-0475             
1 51655U 22012AK  26187.73793073  .00000096  00000+0  21284-3 0  9996
2 51655  87.9137   1.9827 0001236 100.5434 259.5837 13.17648700216268
ONEWEB-0490             
1 54113U 22138A   26187.69531926  .00000001  00000+0 -28778-4 0  9992
2 54113  87.9191 301.0827 0001958 106.2938 253.8410 13.19725932179400
ONEWEB-0492             
1 54114U 22138B   26187.34149789  .00000092  00000+0  19750-3 0  9995
2 54114  87.9184 301.1534 0002138 105.9456 254.1912 13.19726950179368
ONEWEB-0495             
1 54115U 22138C   26187.69847922 -.00000021  00000+0 -85865-4 0  9993
2 54115  87.9185 301.0846 0001924 120.8040 239.3282 13.19725722179396
